[{"OBJECT_NAME":"STARLINK-1972","OBJECT_ID":"2021-012H","EPOCH":"2026-03-09T23:15:16.577568","MEAN_MOTION":15.46891946,"ECCENTRICITY":0.00038028,"INCLINATION":53.0542,"RA_OF_ASC_NODE":323.2416,"ARG_OF_PERICENTER":161.9616,"MEAN_ANOMALY":198.1527,"EPHEMERIS_TYPE":0,"CLASSIFICATION_TYPE":"U","NORAD_CAT_ID":47627,"ELEMENT_SET_NO":999,"REV_AT_EPOCH":28150,"BSTAR":0.001273526,"MEAN_MOTION_DOT":0.00065229,"MEAN_MOTION_DDOT":0},{"OBJECT_NAME":"FLOCK 4Q-31","OBJECT_ID":"2023-174AF","EPOCH":"2026-03-09T18:16:50.892960","MEAN_MOTION":15.50423428,"ECCENTRICITY":0.00077968,"INCLINATION":97.3938,"RA_OF_ASC_NODE":157.7607,"ARG_OF_PERICENTER":152.0999,"MEAN_ANOMALY":208.0672,"EPHEMERIS_TYPE":0,"CLASSIFICATION_TYPE":"U","NORAD_CAT_ID":58285,"ELEMENT_SET_NO":999,"REV_AT_EPOCH":13034,"BSTAR":0.00063040896,"MEAN_MOTION_DOT":0.00035916,"MEAN_MOTION_DDOT":0}]
